{
  "type": "FeatureCollection",
  "features": [
    {
      "type": "Feature",
      "properties": {
        "norad_id": 66174,
        "name": "HTV-X1",
        "group": "stations",
        "lat": 28.97079990972372,
        "lon": -80.8845602094342,
        "alt_km": 415.08157610618036,
        "timestamp": "2025-12-16T05:49:08.004232+00:00",
        "meta_object_name": "HTV-X1",
        "meta_object_id": "2025-241A",
        "meta_epoch": "2025-12-15T21:28:14.919168",
        "meta_mean_motion": 15.49611341,
        "meta_eccentricity": 0.0003169,
        "meta_inclination": 51.6305,
        "meta_ra_of_asc_node": 126.8563,
        "meta_arg_of_pericenter": 254.4589,
        "meta_mean_anomaly": 105.605,
        "meta_ephemeris_type": 0,
        "meta_classification_type": "U",
        "meta_norad_cat_id": 66174,
        "meta_element_set_no": 999,
        "meta_rev_at_epoch": 51,
        "meta_bstar": 0.00012896231,
        "meta_mean_motion_dot": 6.813e-05,
        "meta_mean_motion_ddot": 0,
        "tle_line1": "1 66174U 25241A   25349.89461712  .00006813  00000+0  12896-3 0  9995",
        "tle_line2": "2 66174  51.6305 126.8563 0003169 254.4589 105.6050 15.49611341   511"
      },
      "geometry": {
        "type": "Point",
        "coordinates": [
          -80.8845602094342,
          28.97079990972372
        ]
      }
    },
    {
      "type": "Feature",
      "properties": {
        "norad_id": 66515,
        "name": "SZ-21 MODULE",
        "group": "stations",
        "lat": -13.800802164070506,
        "lon": -21.469114062974466,
        "alt_km": 379.0379624694142,
        "timestamp": "2025-12-16T05:49:08.004244+00:00",
        "meta_object_name": "SZ-21 MODULE",
        "meta_object_id": "2025-246C",
        "meta_epoch": "2025-12-15T17:38:17.166624",
        "meta_mean_motion": 15.62644262,
        "meta_eccentricity": 0.00061674,
        "meta_inclination": 41.4776,
        "meta_ra_of_asc_node": 357.7735,
        "meta_arg_of_pericenter": 275.8419,
        "meta_mean_anomaly": 84.1717,
        "meta_ephemeris_type": 0,
        "meta_classification_type": "U",
        "meta_norad_cat_id": 66515,
        "meta_element_set_no": 999,
        "meta_rev_at_epoch": 491,
        "meta_bstar": 0.00022577355,
        "meta_mean_motion_dot": 0.00020523,
        "meta_mean_motion_ddot": 0,
        "tle_line1": "1 66515U 25246C   25349.73492091  .00020523  00000+0  22577-3 0  9997",
        "tle_line2": "2 66515  41.4776 357.7735 0006167 275.8419  84.1717 15.62644262  4917"
      },
      "geometry": {
        "type": "Point",
        "coordinates": [
          -21.469114062974466,
          -13.800802164070506
        ]
      }
    },
    {
      "type": "Feature",
      "properties": {
        "norad_id": 66645,
        "name": "SHENZHOU-22",
        "group": "stations",
        "lat": 18.35041634915129,
        "lon": 17.50072766264599,
        "alt_km": 381.9892193332771,
        "timestamp": "2025-12-16T05:49:08.004254+00:00",
        "meta_object_name": "SHENZHOU-22",
        "meta_object_id": "2025-272A",
        "meta_epoch": "2025-12-15T17:24:02.570400",
        "meta_mean_motion": 15.59304358,
        "meta_eccentricity": 0.00079014,
        "meta_inclination": 41.4685,
        "meta_ra_of_asc_node": 358.5824,
        "meta_arg_of_pericenter": 56.1338,
        "meta_mean_anomaly": 304.0252,
        "meta_ephemeris_type": 0,
        "meta_classification_type": "U",
        "meta_norad_cat_id": 66645,
        "meta_element_set_no": 999,
        "meta_rev_at_epoch": 26357,
        "meta_bstar": 0.00018266576,
        "meta_mean_motion_dot": 0.00014504,
        "meta_mean_motion_ddot": 0,
        "tle_line1": "1 66645U 25272A   25349.72502975  .00014504  00000+0  18267-3 0  9995",
        "tle_line2": "2 66645  41.4685 358.5824 0007901  56.1338 304.0252 15.59304358263577"
      },
      "geometry": {
        "type": "Point",
        "coordinates": [
          17.50072766264599,
          18.35041634915129
        ]
      }
    },
    {
      "type": "Feature",
      "properties": {
        "norad_id": 66664,
        "name": "SOYUZ-MS 28",
        "group": "stations",
        "lat": 28.970798452179018,
        "lon": -80.88455853236103,
        "alt_km": 415.08157627138826,
        "timestamp": "2025-12-16T05:49:08.004264+00:00",
        "meta_object_name": "SOYUZ-MS 28",
        "meta_object_id": "2025-275A",
        "meta_epoch": "2025-12-15T21:28:14.919168",
        "meta_mean_motion": 15.49611341,
        "meta_eccentricity": 0.0003169,
        "meta_inclination": 51.6305,
        "meta_ra_of_asc_node": 126.8563,
        "meta_arg_of_pericenter": 254.4589,
        "meta_mean_anomaly": 105.605,
        "meta_ephemeris_type": 0,
        "meta_classification_type": "U",
        "meta_norad_cat_id": 66664,
        "meta_element_set_no": 999,
        "meta_rev_at_epoch": 128,
        "meta_bstar": 0.00012896231,
        "meta_mean_motion_dot": 6.813e-05,
        "meta_mean_motion_ddot": 0,
        "tle_line1": "1 66664U 25275A   25349.89461712  .00006813  00000+0  12896-3 0  9996",
        "tle_line2": "2 66664  51.6305 126.8563 0003169 254.4589 105.6050 15.49611341  1280"
      },
      "geometry": {
        "type": "Point",
        "coordinates": [
          -80.88455853236103,
          28.970798452179018
        ]
      }
    },
    {
      "type": "Feature",
      "properties": {
        "norad_id": 66906,
        "name": "1998-067XS",
        "group": "stations",
        "lat": -3.9975138387391165,
        "lon": -51.78220119195898,
        "alt_km": 413.9074448273677,
        "timestamp": "2025-12-16T05:49:08.004274+00:00",
        "meta_object_name": "1998-067XS",
        "meta_object_id": "1998-067XS",
        "meta_epoch": "2025-12-15T16:39:04.886784",
        "meta_mean_motion": 15.50732342,
        "meta_eccentricity": 0.00032898,
        "meta_inclination": 51.6303,
        "meta_ra_of_asc_node": 127.7667,
        "meta_arg_of_pericenter": 216.5725,
        "meta_mean_anomaly": 143.504,
        "meta_ephemeris_type": 0,
        "meta_classification_type": "U",
        "meta_norad_cat_id": 66906,
        "meta_element_set_no": 999,
        "meta_rev_at_epoch": 207,
        "meta_bstar": 0.00035286566,
        "meta_mean_motion_dot": 0.00020263,
        "meta_mean_motion_ddot": 0,
        "tle_line1": "1 66906U 98067XS  25349.69380656  .00020263  00000+0  35287-3 0  9993",
        "tle_line2": "2 66906  51.6303 127.7667 0003289 216.5725 143.5040 15.50732342  2071"
      },
      "geometry": {
        "type": "Point",
        "coordinates": [
          -51.78220119195898,
          -3.9975138387391165
        ]
      }
    },
    {
      "type": "Feature",
      "properties": {
        "norad_id": 66907,
        "name": "1998-067XT",
        "group": "stations",
        "lat": -25.393664361497343,
        "lon": -32.92189982215818,
        "alt_km": 412.2166624916399,
        "timestamp": "2025-12-16T05:49:08.004284+00:00",
        "meta_object_name": "1998-067XT",
        "meta_object_id": "1998-067XT",
        "meta_epoch": "2025-12-15T19:37:52.461984",
        "meta_mean_motion": 15.51845045,
        "meta_eccentricity": 0.00041213,
        "meta_inclination": 51.6296,
        "meta_ra_of_asc_node": 127.0953,
        "meta_arg_of_pericenter": 244.2963,
        "meta_mean_anomaly": 115.7601,
        "meta_ephemeris_type": 0,
        "meta_classification_type": "U",
        "meta_norad_cat_id": 66907,
        "meta_element_set_no": 999,
        "meta_rev_at_epoch": 209,
        "meta_bstar": 0.00082636885,
        "meta_mean_motion_dot": 0.0005023,
        "meta_mean_motion_ddot": 0,
        "tle_line1": "1 66907U 98067XT  25349.81796831  .00050230  00000+0  82637-3 0  9992",
        "tle_line2": "2 66907  51.6296 127.0953 0004121 244.2963 115.7601 15.51845045  2094"
      },
      "geometry": {
        "type": "Point",
        "coordinates": [
          -32.92189982215818,
          -25.393664361497343
        ]
      }
    },
    {
      "type": "Feature",
      "properties": {
        "norad_id": 66908,
        "name": "1998-067XU",
        "group": "stations",
        "lat": -27.52472375484123,
        "lon": -30.6347644854028,
        "alt_km": 411.94669904760485,
        "timestamp": "2025-12-16T05:49:08.004294+00:00",
        "meta_object_name": "1998-067XU",
        "meta_object_id": "1998-067XU",
        "meta_epoch": "2025-12-15T18:04:25.292064",
        "meta_mean_motion": 15.51929885,
        "meta_eccentricity": 0.00042378,
        "meta_inclination": 51.6291,
        "meta_ra_of_asc_node": 127.4116,
        "meta_arg_of_pericenter": 243.4196,
        "meta_mean_anomaly": 116.636,
        "meta_ephemeris_type": 0,
        "meta_classification_type": "U",
        "meta_norad_cat_id": 66908,
        "meta_element_set_no": 999,
        "meta_rev_at_epoch": 208,
        "meta_bstar": 0.00081150303,
        "meta_mean_motion_dot": 0.00049466,
        "meta_mean_motion_ddot": 0,
        "tle_line1": "1 66908U 98067XU  25349.75307051  .00049466  00000+0  81150-3 0  9996",
        "tle_line2": "2 66908  51.6291 127.4116 0004237 243.4196 116.6360 15.51929885  2088"
      },
      "geometry": {
        "type": "Point",
        "coordinates": [
          -30.6347644854028,
          -27.52472375484123
        ]
      }
    }
  ]
}